{"type": "FeatureCollection", "features": [ {"type": "Feature", "properties": {"norad_id": 35018, "name": "COSMOS 2251 DEB", "group": "cosmos-2251-debris", "lat": 53.49589340609629, "lon": -84.9680755671378, "alt_km": 1018.3693628098717, "timestamp": "2025-12-07T22:37:43.477857+00:00", "meta": {"OBJECT_NAME": "COSMOS 2251 DEB", "OBJECT_ID": "1993-036AGF", "EPOCH": "2025-12-07T02:44:20.338656", "MEAN_MOTION": 13.67099498, "ECCENTRICITY": 0.0348459, "INCLINATION": 73.9755, "RA_OF_ASC_NODE": 119.2461, "ARG_OF_PERICENTER": 29.6581, "MEAN_ANOMALY": 332.3799, "EPHEMERIS_TYPE": 0, "CLASSIFICATION_TYPE": "U", "NORAD_CAT_ID": 35018, "ELEMENT_SET_NO": 999, "REV_AT_EPOCH": 83109, "BSTAR": 0.0011552801, "MEAN_MOTION_DOT": 1.451e-05, "MEAN_MOTION_DDOT": 0}, "tle": {"line1": "1 35018U 93036AGF 25341.11412429  .00001451  00000+0  11553-2 0  9994", "line2": "2 35018  73.9755 119.2461 0348459  29.6581 332.3799 13.67099498831096"}}, "geometry": {"type": "Point", "coordinates": [-84.9680755671378, 53.49589340609629]}}, {"type": "Feature", "properties": {"norad_id": 35020, "name": "COSMOS 2251 DEB", "group": "cosmos-2251-debris", "lat": -72.67537072098335, "lon": 94.63580630907315, "alt_km": 658.6860129781935, "timestamp": "2025-12-07T22:37:43.477868+00:00", "meta": {"OBJECT_NAME": "COSMOS 2251 DEB", "OBJECT_ID": "1993-036AGH", "EPOCH": "2025-12-07T00:05:05.050752", "MEAN_MOTION": 14.62790798, "ECCENTRICITY": 0.00909018, "INCLINATION": 74.0461, "RA_OF_ASC_NODE": 209.9349, "ARG_OF_PERICENTER": 325.3145, "MEAN_ANOMALY": 34.2114, "EPHEMERIS_TYPE": 0, "CLASSIFICATION_TYPE": "U", "NORAD_CAT_ID": 35020, "ELEMENT_SET_NO": 999, "REV_AT_EPOCH": 88154, "BSTAR": 0.00028883353, "MEAN_MOTION_DOT": 1.53e-05, "MEAN_MOTION_DDOT": 0}, "tle": {"line1": "1 35020U 93036AGH 25341.00353068  .00001530  00000+0  28883-3 0  9991", "line2": "2 35020  74.0461 209.9349 0090901 325.3145  34.2114 14.62790798881546"}}, "geometry": {"type": "Point", "coordinates": [94.63580630907315, -72.67537072098335]}}, {"type": "Feature", "properties": {"norad_id": 35022, "name": "COSMOS 2251 DEB", "group": "cosmos-2251-debris", "lat": -9.934883782719927, "lon": -31.76704678645098, "alt_km": 727.8430271135094, "timestamp": "2025-12-07T22:37:43.477878+00:00", "meta": {"OBJECT_NAME": "COSMOS 2251 DEB", "OBJECT_ID": "1993-036AGK", "EPOCH": "2025-12-02T17:45:34.658208", "MEAN_MOTION": 14.60763876, "ECCENTRICITY": 0.00472905, "INCLINATION": 74.0262, "RA_OF_ASC_NODE": 341.0512, "ARG_OF_PERICENTER": 183.6288, "MEAN_ANOMALY": 176.4543, "EPHEMERIS_TYPE": 0, "CLASSIFICATION_TYPE": "U", "NORAD_CAT_ID": 35022, "ELEMENT_SET_NO": 999, "REV_AT_EPOCH": 58997, "BSTAR": 0.00056913021, "MEAN_MOTION_DOT": 2.791e-05, "MEAN_MOTION_DDOT": 0}, "tle": {"line1": "1 35022U 93036AGK 25336.73998447  .00002791  00000+0  56913-3 0  9998", "line2": "2 35022  74.0262 341.0512 0047290 183.6288 176.4543 14.60763876589975"}}, "geometry": {"type": "Point", "coordinates": [-31.76704678645098, -9.934883782719927]}}, {"type": "Feature", "properties": {"norad_id": 35023, "name": "COSMOS 2251 DEB", "group": "cosmos-2251-debris", "lat": -60.47157127181789, "lon": -168.09306595626347, "alt_km": 565.849915384646, "timestamp": "2025-12-07T22:37:43.477889+00:00", "meta": {"OBJECT_NAME": "COSMOS 2251 DEB", "OBJECT_ID": "1993-036AGL", "EPOCH": "2025-12-07T02:42:30.646080", "MEAN_MOTION": 14.94828028, "ECCENTRICITY": 0.00342471, "INCLINATION": 74.0379, "RA_OF_ASC_NODE": 223.9317, "ARG_OF_PERICENTER": 302.7742, "MEAN_ANOMALY": 207.7182, "EPHEMERIS_TYPE": 0, "CLASSIFICATION_TYPE": "U", "NORAD_CAT_ID": 35023, "ELEMENT_SET_NO": 999, "REV_AT_EPOCH": 88195, "BSTAR": 0.0025053291, "MEAN_MOTION_DOT": 0.0002767, "MEAN_MOTION_DDOT": 0}, "tle": {"line1": "1 35023U 93036AGL 25341.11285470  .00027670  00000+0  25053-2 0  9995", "line2": "2 35023  74.0379 223.9317 0034247 302.7742 207.7182 14.94828028881951"}}, "geometry": {"type": "Point", "coordinates": [-168.09306595626347, -60.47157127181789]}}, {"type": "Feature", "properties": {"norad_id": 35025, "name": "COSMOS 2251 DEB", "group": "cosmos-2251-debris", "lat": 33.6198382983716, "lon": 83.37002767026063, "alt_km": 610.7669323217324, "timestamp": "2025-12-07T22:37:43.477899+00:00", "meta": {"OBJECT_NAME": "COSMOS 2251 DEB", "OBJECT_ID": "1993-036AGN", "EPOCH": "2025-12-05T13:24:32.861952", "MEAN_MOTION": 14.72652613, "ECCENTRICITY": 0.00847967, "INCLINATION": 73.9386, "RA_OF_ASC_NODE": 76.9946, "ARG_OF_PERICENTER": 351.3968, "MEAN_ANOMALY": 8.5744, "EPHEMERIS_TYPE": 0, "CLASSIFICATION_TYPE": "U", "NORAD_CAT_ID": 35025, "ELEMENT_SET_NO": 999, "REV_AT_EPOCH": 88537, "BSTAR": 0.00071609127, "MEAN_MOTION_DOT": 4.797e-05, "MEAN_MOTION_DDOT": 0}, "tle": {"line1": "1 35025U 93036AGN 25339.55871368  .00004797  00000+0  71609-3 0  9993", "line2": "2 35025  73.9386  76.9946 0084796 351.3968   8.5744 14.72652613885379"}}, "geometry": {"type": "Point", "coordinates": [83.37002767026063, 33.6198382983716]}}, {"type": "Feature", "properties": {"norad_id": 35026, "name": "COSMOS 2251 DEB", "group": "cosmos-2251-debris", "lat": -51.31084193294022, "lon": 168.78743600015343, "alt_km": 771.5905683472229, "timestamp": "2025-12-07T22:37:43.477910+00:00", "meta": {"OBJECT_NAME": "COSMOS 2251 DEB", "OBJECT_ID": "1993-036AGP", "EPOCH": "2025-12-06T07:51:48.078720", "MEAN_MOTION": 14.53617344, "ECCENTRICITY": 0.00822532, "INCLINATION": 74.0464, "RA_OF_ASC_NODE": 330.9073, "ARG_OF_PERICENTER": 86.1829, "MEAN_ANOMALY": 338.5159, "EPHEMERIS_TYPE": 0, "CLASSIFICATION_TYPE": "U", "NORAD_CAT_ID": 35026, "ELEMENT_SET_NO": 999, "REV_AT_EPOCH": 88050, "BSTAR": 0.00012460817, "MEAN_MOTION_DOT": 5.15e-06, "MEAN_MOTION_DDOT": 0}, "tle": {"line1": "1 35026U 93036AGP 25340.32763980  .00000515  00000+0  12461-3 0  9996", "line2": "2 35026  74.0464 330.9073 0082253  86.1829 338.5159 14.53617344880505"}}, "geometry": {"type": "Point", "coordinates": [168.78743600015343, -51.31084193294022]}}, {"type": "Feature", "properties": {"norad_id": 35028, "name": "COSMOS 2251 DEB", "group": "cosmos-2251-debris", "lat": -60.912204302975, "lon": -110.87940518636574, "alt_km": 740.2650364380788, "timestamp": "2025-12-07T22:37:43.477921+00:00", "meta": {"OBJECT_NAME": "COSMOS 2251 DEB", "OBJECT_ID": "1993-036AGR", "EPOCH": "2025-12-06T14:45:20.784960", "MEAN_MOTION": 14.56559763, "ECCENTRICITY": 0.00822588, "INCLINATION": 74.0381, "RA_OF_ASC_NODE": 282.6027, "ARG_OF_PERICENTER": 57.9846, "MEAN_ANOMALY": 116.6366, "EPHEMERIS_TYPE": 0, "CLASSIFICATION_TYPE": "U", "NORAD_CAT_ID": 35028, "ELEMENT_SET_NO": 999, "REV_AT_EPOCH": 88196, "BSTAR": 0.00020909724, "MEAN_MOTION_DOT": 9.44e-06, "MEAN_MOTION_DDOT": 0}, "tle": {"line1": "1 35028U 93036AGR 25340.61482390  .00000944  00000+0  20910-3 0  9997", "line2": "2 35028  74.0381 282.6027 0082258  57.9846 116.6366 14.56559763881966"}}, "geometry": {"type": "Point", "coordinates": [-110.87940518636574, -60.912204302975]}}, {"type": "Feature", "properties": {"norad_id": 35031, "name": "COSMOS 2251 DEB", "group": "cosmos-2251-debris", "lat": 16.997196918179718, "lon": 83.0823880294168, "alt_km": 776.7732210108488, "timestamp": "2025-12-07T22:37:43.477931+00:00", "meta": {"OBJECT_NAME": "COSMOS 2251 DEB", "OBJECT_ID": "1993-036AGU", "EPOCH": "2025-12-06T02:28:30.271296", "MEAN_MOTION": 14.38280865, "ECCENTRICITY": 0.00185684, "INCLINATION": 74.0385, "RA_OF_ASC_NODE": 271.4894, "ARG_OF_PERICENTER": 6.3258, "MEAN_ANOMALY": 353.8127, "EPHEMERIS_TYPE": 0, "CLASSIFICATION_TYPE": "U", "NORAD_CAT_ID": 35031, "ELEMENT_SET_NO": 999, "REV_AT_EPOCH": 65188, "BSTAR": 0.00033805858, "MEAN_MOTION_DOT": 1.004e-05, "MEAN_MOTION_DDOT": 0}, "tle": {"line1": "1 35031U 93036AGU 25340.10312814  .00001004  00000+0  33806-3 0  9994", "line2": "2 35031  74.0385 271.4894 0018568   6.3258 353.8127 14.38280865651880"}}, "geometry": {"type": "Point", "coordinates": [83.0823880294168, 16.997196918179718]}}, {"type": "Feature", "properties": {"norad_id": 35032, "name": "COSMOS 2251 DEB", "group": "cosmos-2251-debris", "lat": 33.87058018609735, "lon": 27.732262473816554, "alt_km": 742.3500063645015, "timestamp": "2025-12-07T22:37:43.477942+00:00", "meta": {"OBJECT_NAME": "COSMOS 2251 DEB", "OBJECT_ID": "1993-036AGV", "EPOCH": "2025-12-06T20:57:06.952032", "MEAN_MOTION": 14.58651101, "ECCENTRICITY": 0.00687525, "INCLINATION": 73.8514, "RA_OF_ASC_NODE": 18.577, "ARG_OF_PERICENTER": 230.8542, "MEAN_ANOMALY": 308.7404, "EPHEMERIS_TYPE": 0, "CLASSIFICATION_TYPE": "U", "NORAD_CAT_ID": 35032, "ELEMENT_SET_NO": 999, "REV_AT_EPOCH": 87588, "BSTAR": 0.0016314058, "MEAN_MOTION_DOT": 7.832e-05, "MEAN_MOTION_DDOT": 0}, "tle": {"line1": "1 35032U 93036AGV 25340.87299713  .00007832  00000+0  16314-2 0  9990", "line2": "2 35032  73.8514  18.5770 0068752 230.8542 308.7404 14.58651101875887"}}, "geometry": {"type": "Point", "coordinates": [27.732262473816554, 33.87058018609735]}}, {"type": "Feature", "properties": {"norad_id": 35033, "name": "COSMOS 2251 DEB", "group": "cosmos-2251-debris", "lat": -12.814377225701165, "lon": 9.339371062600653, "alt_km": 728.4069722062914, "timestamp": "2025-12-07T22:37:43.477952+00:00", "meta": {"OBJECT_NAME": "COSMOS 2251 DEB", "OBJECT_ID": "1993-036AGW", "EPOCH": "2025-12-06T07:40:42.682944", "MEAN_MOTION": 14.50882288, "ECCENTRICITY": 0.00143551, "INCLINATION": 74.0259, "RA_OF_ASC_NODE": 188.6562, "ARG_OF_PERICENTER": 295.5184, "MEAN_ANOMALY": 64.4492, "EPHEMERIS_TYPE": 0, "CLASSIFICATION_TYPE": "U", "NORAD_CAT_ID": 35033, "ELEMENT_SET_NO": 999, "REV_AT_EPOCH": 65834, "BSTAR": 0.0011813512, "MEAN_MOTION_DOT": 4.642e-05, "MEAN_MOTION_DDOT": 0}, "tle": {"line1": "1 35033U 93036AGW 25340.31993846  .00004642  00000+0  11814-2 0  9994", "line2": "2 35033  74.0259 188.6562 0014355 295.5184  64.4492 14.50882288658342"}}, "geometry": {"type": "Point", "coordinates": [9.339371062600653, -12.814377225701165]}}]}